[{"OBJECT_NAME":"UMBRA-07","OBJECT_ID":"2023-174AT","EPOCH":"2026-03-09T17:14:20.565312","MEAN_MOTION":15.07174057,"ECCENTRICITY":0.00041314,"INCLINATION":97.3902,"RA_OF_ASC_NODE":128.3323,"ARG_OF_PERICENTER":75.5473,"MEAN_ANOMALY":284.6213,"EPHEMERIS_TYPE":0,"CLASSIFICATION_TYPE":"U","NORAD_CAT_ID":58297,"ELEMENT_SET_NO":999,"REV_AT_EPOCH":12842,"BSTAR":0.0008461425,"MEAN_MOTION_DOT":0.00012685,"MEAN_MOTION_DDOT":0},{"OBJECT_NAME":"STARLINK-34708","OBJECT_ID":"2025-165G","EPOCH":"2026-03-09T17:09:33.266304","MEAN_MOTION":15.05666348,"ECCENTRICITY":0.00012979,"INCLINATION":97.6013,"RA_OF_ASC_NODE":147.2452,"ARG_OF_PERICENTER":85.8737,"MEAN_ANOMALY":274.2639,"EPHEMERIS_TYPE":0,"CLASSIFICATION_TYPE":"U","NORAD_CAT_ID":65062,"ELEMENT_SET_NO":999,"REV_AT_EPOCH":3479,"BSTAR":0.0013605964,"MEAN_MOTION_DOT":0.00019634,"MEAN_MOTION_DDOT":0}]
