UMBRA-07                
1 58297U 23174AT  26068.71829358  .00012685  00000+0  84614-3 0  9990
2 58297  97.3902 128.3323 0004131  75.5473 284.6213 15.07174057128425
STARLINK-34708          
1 65062U 25165G   26068.71496836  .00019634  00000+0  13606-2 0  9994
2 65062  97.6013 147.2452 0001298  85.8737 274.2639 15.05666348 34790
